<?xml version="1.0" encoding="UTF-8"?>
<kml xmlns="http://www.opengis.net/kml/2.2" xmlns:gx="http://www.google.com/kml/ext/2.2" xmlns:kml="http://www.opengis.net/kml/2.2" xmlns:atom="http://www.w3.org/2005/Atom">
<Document>
	<name>Fox et al 2019 locations.kml</name>
	<Style id="sn_3">
		<IconStyle>
			<scale>1.2</scale>
			<Icon>
				<href>http://maps.google.com/mapfiles/kml/paddle/3.png</href>
			</Icon>
			<hotSpot x="32" y="1" xunits="pixels" yunits="pixels"/>
		</IconStyle>
		<LabelStyle>
			<color>00ffffff</color>
		</LabelStyle>
		<BalloonStyle>
		</BalloonStyle>
		<ListStyle>
			<ItemIcon>
				<href>http://maps.google.com/mapfiles/kml/paddle/3-lv.png</href>
			</ItemIcon>
		</ListStyle>
	</Style>
	<StyleMap id="msn_3">
		<Pair>
			<key>normal</key>
			<styleUrl>#sn_3</styleUrl>
		</Pair>
		<Pair>
			<key>highlight</key>
			<styleUrl>#sh_3</styleUrl>
		</Pair>
	</StyleMap>
	<Style id="sn_4">
		<IconStyle>
			<scale>1.2</scale>
			<Icon>
				<href>http://maps.google.com/mapfiles/kml/paddle/4.png</href>
			</Icon>
			<hotSpot x="32" y="1" xunits="pixels" yunits="pixels"/>
		</IconStyle>
		<LabelStyle>
			<color>00ffffff</color>
		</LabelStyle>
		<BalloonStyle>
		</BalloonStyle>
		<ListStyle>
			<ItemIcon>
				<href>http://maps.google.com/mapfiles/kml/paddle/4-lv.png</href>
			</ItemIcon>
		</ListStyle>
	</Style>
	<Style id="sn_1">
		<IconStyle>
			<scale>1.2</scale>
			<Icon>
				<href>http://maps.google.com/mapfiles/kml/paddle/1.png</href>
			</Icon>
			<hotSpot x="32" y="1" xunits="pixels" yunits="pixels"/>
		</IconStyle>
		<LabelStyle>
			<color>00ffffff</color>
		</LabelStyle>
		<BalloonStyle>
		</BalloonStyle>
		<ListStyle>
			<ItemIcon>
				<href>http://maps.google.com/mapfiles/kml/paddle/1-lv.png</href>
			</ItemIcon>
		</ListStyle>
	</Style>
	<StyleMap id="failed0">
		<Pair>
			<key>normal</key>
			<styleUrl>#failed</styleUrl>
		</Pair>
		<Pair>
			<key>highlight</key>
			<styleUrl>#failed2</styleUrl>
		</Pair>
	</StyleMap>
	<StyleMap id="msn_1">
		<Pair>
			<key>normal</key>
			<styleUrl>#sn_1</styleUrl>
		</Pair>
		<Pair>
			<key>highlight</key>
			<styleUrl>#sh_10</styleUrl>
		</Pair>
	</StyleMap>
	<StyleMap id="msn_5">
		<Pair>
			<key>normal</key>
			<styleUrl>#sn_5</styleUrl>
		</Pair>
		<Pair>
			<key>highlight</key>
			<styleUrl>#sh_5</styleUrl>
		</Pair>
	</StyleMap>
	<Style id="sh_1">
		<IconStyle>
			<scale>1.3</scale>
			<Icon>
				<href>http://maps.google.com/mapfiles/kml/paddle/1.png</href>
			</Icon>
			<hotSpot x="32" y="1" xunits="pixels" yunits="pixels"/>
		</IconStyle>
		<LabelStyle>
			<color>00ffffff</color>
		</LabelStyle>
		<BalloonStyle>
		</BalloonStyle>
		<ListStyle>
			<ItemIcon>
				<href>http://maps.google.com/mapfiles/kml/paddle/1-lv.png</href>
			</ItemIcon>
		</ListStyle>
	</Style>
	<Style id="failed">
		<IconStyle>
			<scale>1.1</scale>
			<Icon>
				<href>http://maps.google.com/mapfiles/kml/paddle/ltblu-blank.png</href>
			</Icon>
			<hotSpot x="32" y="1" xunits="pixels" yunits="pixels"/>
		</IconStyle>
		<ListStyle>
			<ItemIcon>
				<href>http://maps.google.com/mapfiles/kml/paddle/ltblu-blank-lv.png</href>
			</ItemIcon>
		</ListStyle>
	</Style>
	<Style id="sn_5">
		<IconStyle>
			<scale>1.2</scale>
			<Icon>
				<href>http://maps.google.com/mapfiles/kml/paddle/5.png</href>
			</Icon>
			<hotSpot x="32" y="1" xunits="pixels" yunits="pixels"/>
		</IconStyle>
		<LabelStyle>
			<color>00ffffff</color>
		</LabelStyle>
		<BalloonStyle>
		</BalloonStyle>
		<ListStyle>
			<ItemIcon>
				<href>http://maps.google.com/mapfiles/kml/paddle/5-lv.png</href>
			</ItemIcon>
		</ListStyle>
	</Style>
	<Style id="sh_3">
		<IconStyle>
			<scale>1.41818</scale>
			<Icon>
				<href>http://maps.google.com/mapfiles/kml/paddle/3.png</href>
			</Icon>
			<hotSpot x="32" y="1" xunits="pixels" yunits="pixels"/>
		</IconStyle>
		<LabelStyle>
			<color>00ffffff</color>
		</LabelStyle>
		<BalloonStyle>
		</BalloonStyle>
		<ListStyle>
			<ItemIcon>
				<href>http://maps.google.com/mapfiles/kml/paddle/3-lv.png</href>
			</ItemIcon>
		</ListStyle>
	</Style>
	<StyleMap id="msn_2">
		<Pair>
			<key>normal</key>
			<styleUrl>#sn_2</styleUrl>
		</Pair>
		<Pair>
			<key>highlight</key>
			<styleUrl>#sh_2</styleUrl>
		</Pair>
	</StyleMap>
	<Style id="failed2">
		<IconStyle>
			<scale>1.3</scale>
			<Icon>
				<href>http://maps.google.com/mapfiles/kml/paddle/ltblu-blank.png</href>
			</Icon>
			<hotSpot x="32" y="1" xunits="pixels" yunits="pixels"/>
		</IconStyle>
		<ListStyle>
			<ItemIcon>
				<href>http://maps.google.com/mapfiles/kml/paddle/ltblu-blank-lv.png</href>
			</ItemIcon>
		</ListStyle>
	</Style>
	<Style id="sn_30">
		<IconStyle>
			<scale>1.2</scale>
			<Icon>
				<href>http://maps.google.com/mapfiles/kml/paddle/3.png</href>
			</Icon>
			<hotSpot x="32" y="1" xunits="pixels" yunits="pixels"/>
		</IconStyle>
		<LabelStyle>
			<color>00ffffff</color>
		</LabelStyle>
		<BalloonStyle>
		</BalloonStyle>
		<ListStyle>
			<ItemIcon>
				<href>http://maps.google.com/mapfiles/kml/paddle/3-lv.png</href>
			</ItemIcon>
		</ListStyle>
	</Style>
	<StyleMap id="msn_30">
		<Pair>
			<key>normal</key>
			<styleUrl>#sn_30</styleUrl>
		</Pair>
		<Pair>
			<key>highlight</key>
			<styleUrl>#sh_30</styleUrl>
		</Pair>
	</StyleMap>
	<Style id="s_ylw-pushpin_hl0">
		<IconStyle>
			<scale>1.06364</scale>
			<Icon>
				<href>http://maps.google.com/mapfiles/kml/paddle/blu-blank.png</href>
			</Icon>
			<hotSpot x="32" y="1" xunits="pixels" yunits="pixels"/>
		</IconStyle>
		<ListStyle>
			<ItemIcon>
				<href>http://maps.google.com/mapfiles/kml/paddle/blu-blank-lv.png</href>
			</ItemIcon>
		</ListStyle>
	</Style>
	<Style id="sn_10">
		<IconStyle>
			<scale>1.1</scale>
			<Icon>
				<href>http://maps.google.com/mapfiles/kml/paddle/1.png</href>
			</Icon>
			<hotSpot x="32" y="1" xunits="pixels" yunits="pixels"/>
		</IconStyle>
		<LabelStyle>
			<color>00ffffff</color>
		</LabelStyle>
		<BalloonStyle>
		</BalloonStyle>
		<ListStyle>
			<ItemIcon>
				<href>http://maps.google.com/mapfiles/kml/paddle/1-lv.png</href>
			</ItemIcon>
		</ListStyle>
	</Style>
	<StyleMap id="msn_4">
		<Pair>
			<key>normal</key>
			<styleUrl>#sn_4</styleUrl>
		</Pair>
		<Pair>
			<key>highlight</key>
			<styleUrl>#sh_4</styleUrl>
		</Pair>
	</StyleMap>
	<StyleMap id="msn_10">
		<Pair>
			<key>normal</key>
			<styleUrl>#sn_10</styleUrl>
		</Pair>
		<Pair>
			<key>highlight</key>
			<styleUrl>#sh_1</styleUrl>
		</Pair>
	</StyleMap>
	<Style id="sh_5">
		<IconStyle>
			<scale>1.41818</scale>
			<Icon>
				<href>http://maps.google.com/mapfiles/kml/paddle/5.png</href>
			</Icon>
			<hotSpot x="32" y="1" xunits="pixels" yunits="pixels"/>
		</IconStyle>
		<LabelStyle>
			<color>00ffffff</color>
		</LabelStyle>
		<BalloonStyle>
		</BalloonStyle>
		<ListStyle>
			<ItemIcon>
				<href>http://maps.google.com/mapfiles/kml/paddle/5-lv.png</href>
			</ItemIcon>
		</ListStyle>
	</Style>
	<Style id="sh_10">
		<IconStyle>
			<scale>1.41818</scale>
			<Icon>
				<href>http://maps.google.com/mapfiles/kml/paddle/1.png</href>
			</Icon>
			<hotSpot x="32" y="1" xunits="pixels" yunits="pixels"/>
		</IconStyle>
		<LabelStyle>
			<color>00ffffff</color>
		</LabelStyle>
		<BalloonStyle>
		</BalloonStyle>
		<ListStyle>
			<ItemIcon>
				<href>http://maps.google.com/mapfiles/kml/paddle/1-lv.png</href>
			</ItemIcon>
		</ListStyle>
	</Style>
	<Style id="s_ylw-pushpin01">
		<IconStyle>
			<scale>0.9</scale>
			<Icon>
				<href>http://maps.google.com/mapfiles/kml/paddle/blu-blank.png</href>
			</Icon>
			<hotSpot x="32" y="1" xunits="pixels" yunits="pixels"/>
		</IconStyle>
		<ListStyle>
			<ItemIcon>
				<href>http://maps.google.com/mapfiles/kml/paddle/blu-blank-lv.png</href>
			</ItemIcon>
		</ListStyle>
	</Style>
	<StyleMap id="m_ylw-pushpin01">
		<Pair>
			<key>normal</key>
			<styleUrl>#s_ylw-pushpin01</styleUrl>
		</Pair>
		<Pair>
			<key>highlight</key>
			<styleUrl>#s_ylw-pushpin_hl0</styleUrl>
		</Pair>
	</StyleMap>
	<Style id="sh_4">
		<IconStyle>
			<scale>1.41818</scale>
			<Icon>
				<href>http://maps.google.com/mapfiles/kml/paddle/4.png</href>
			</Icon>
			<hotSpot x="32" y="1" xunits="pixels" yunits="pixels"/>
		</IconStyle>
		<LabelStyle>
			<color>00ffffff</color>
		</LabelStyle>
		<BalloonStyle>
		</BalloonStyle>
		<ListStyle>
			<ItemIcon>
				<href>http://maps.google.com/mapfiles/kml/paddle/4-lv.png</href>
			</ItemIcon>
		</ListStyle>
	</Style>
	<Style id="sh_30">
		<IconStyle>
			<scale>1.41818</scale>
			<Icon>
				<href>http://maps.google.com/mapfiles/kml/paddle/3.png</href>
			</Icon>
			<hotSpot x="32" y="1" xunits="pixels" yunits="pixels"/>
		</IconStyle>
		<LabelStyle>
			<color>00ffffff</color>
		</LabelStyle>
		<BalloonStyle>
		</BalloonStyle>
		<ListStyle>
			<ItemIcon>
				<href>http://maps.google.com/mapfiles/kml/paddle/3-lv.png</href>
			</ItemIcon>
		</ListStyle>
	</Style>
	<Style id="sh_2">
		<IconStyle>
			<scale>1.41818</scale>
			<Icon>
				<href>http://maps.google.com/mapfiles/kml/paddle/2.png</href>
			</Icon>
			<hotSpot x="32" y="1" xunits="pixels" yunits="pixels"/>
		</IconStyle>
		<LabelStyle>
			<color>00ffffff</color>
		</LabelStyle>
		<BalloonStyle>
		</BalloonStyle>
		<ListStyle>
			<ItemIcon>
				<href>http://maps.google.com/mapfiles/kml/paddle/2-lv.png</href>
			</ItemIcon>
		</ListStyle>
	</Style>
	<Style id="sn_2">
		<IconStyle>
			<scale>1.2</scale>
			<Icon>
				<href>http://maps.google.com/mapfiles/kml/paddle/2.png</href>
			</Icon>
			<hotSpot x="32" y="1" xunits="pixels" yunits="pixels"/>
		</IconStyle>
		<LabelStyle>
			<color>00ffffff</color>
		</LabelStyle>
		<BalloonStyle>
		</BalloonStyle>
		<ListStyle>
			<ItemIcon>
				<href>http://maps.google.com/mapfiles/kml/paddle/2-lv.png</href>
			</ItemIcon>
		</ListStyle>
	</Style>
	<Folder>
		<name>Fox et al 2019 locations</name>
		<Placemark>
			<name>GRO</name>
			<open>1</open>
			<description>Gothic Road shale outcrop core location</description>
			<styleUrl>#failed0</styleUrl>
			<Point>
				<coordinates>-106.9768388888889,38.937475,0</coordinates>
			</Point>
		</Placemark>
		<Placemark>
			<name>PLM6</name>
			<open>1</open>
			<description>hillslope shale core location</description>
			<LookAt>
				<longitude>-106.9484325429966</longitude>
				<latitude>38.92079803182369</latitude>
				<altitude>0</altitude>
				<heading>-8.165018200503333e-009</heading>
				<tilt>0</tilt>
				<range>1000.000019912808</range>
				<gx:altitudeMode>relativeToSeaFloor</gx:altitudeMode>
			</LookAt>
			<styleUrl>#m_ylw-pushpin01</styleUrl>
			<Point>
				<gx:drawOrder>1</gx:drawOrder>
				<coordinates>-106.9484325429965,38.92079803182369,0</coordinates>
			</Point>
		</Placemark>
		<Placemark>
			<name>MOP1</name>
			<open>1</open>
			<description>MO-cut bank</description>
			<styleUrl>#msn_1</styleUrl>
			<Point>
				<coordinates>-106.9478958,38.92199615,0</coordinates>
			</Point>
		</Placemark>
		<Placemark>
			<name>MOP2</name>
			<description>MO-middle</description>
			<styleUrl>#msn_2</styleUrl>
			<Point>
				<coordinates>-106.9477229,38.92192196,0</coordinates>
			</Point>
		</Placemark>
		<Placemark>
			<name>MOP3</name>
			<description>MO-point bar</description>
			<styleUrl>#msn_30</styleUrl>
			<Point>
				<coordinates>-106.9475335,38.92187146,0</coordinates>
			</Point>
		</Placemark>
		<Placemark>
			<name>MOP4</name>
			<description>MO-wetland</description>
			<styleUrl>#msn_4</styleUrl>
			<Point>
				<coordinates>-106.9473059,38.92185236,0</coordinates>
			</Point>
		</Placemark>
		<Placemark>
			<name>MCC1</name>
			<description>MC-cut bank (MCC-1A and 1B)</description>
			<styleUrl>#msn_10</styleUrl>
			<Point>
				<coordinates>-106.950346877,38.922850274,0</coordinates>
			</Point>
		</Placemark>
		<Placemark>
			<name>MCC3</name>
			<open>1</open>
			<description>MC-middle</description>
			<styleUrl>#msn_3</styleUrl>
			<Point>
				<coordinates>-106.949997525,38.922832234,0</coordinates>
			</Point>
		</Placemark>
		<Placemark>
			<name>MCC5</name>
			<description>MC-point bar</description>
			<styleUrl>#msn_5</styleUrl>
			<Point>
				<coordinates>-106.949644201,38.922795382,0</coordinates>
			</Point>
		</Placemark>
	</Folder>
</Document>
</kml>
